[{"OBJECT_NAME":"JILIN-1 GAOFEN 2F","OBJECT_ID":"2021-097A","EPOCH":"2026-03-09T22:15:16.366464","MEAN_MOTION":15.06938169,"ECCENTRICITY":0.00186372,"INCLINATION":97.6538,"RA_OF_ASC_NODE":195.5232,"ARG_OF_PERICENTER":201.1609,"MEAN_ANOMALY":158.885,"EPHEMERIS_TYPE":0,"CLASSIFICATION_TYPE":"U","NORAD_CAT_ID":49338,"ELEMENT_SET_NO":999,"REV_AT_EPOCH":24136,"BSTAR":0.0003789548,"MEAN_MOTION_DOT":5.624e-5,"MEAN_MOTION_DDOT":0},{"OBJECT_NAME":"STARLINK-4573","OBJECT_ID":"2022-104AM","EPOCH":"2026-03-09T22:25:06.379104","MEAN_MOTION":15.08817989,"ECCENTRICITY":0.00013798,"INCLINATION":53.2163,"RA_OF_ASC_NODE":232.8995,"ARG_OF_PERICENTER":86.4749,"MEAN_ANOMALY":273.6401,"EPHEMERIS_TYPE":0,"CLASSIFICATION_TYPE":"U","NORAD_CAT_ID":53623,"ELEMENT_SET_NO":999,"REV_AT_EPOCH":19578,"BSTAR":0.00034384772,"MEAN_MOTION_DOT":5.185e-5,"MEAN_MOTION_DDOT":0}]
